PATCOOL                 
1 51442U 98067TE  22248.50141763  .00093596  00000+0  72163-3 0  9994
2 51442  51.6332 282.7270 0001933 135.5496 224.5657 15.71188514 34688
LIGHT-1                 
1 51509U 98067TG  22248.47733211  .00055852  00000+0  56193-3 0  9997
2 51509  51.6385 287.1348 0005368 148.0414 212.0908 15.64861020 33402
PROGRESS-MS 19          
1 51660U 22014A   22248.54405043  .00005773  00000+0  10888-3 0  9999
2 51660  51.6445 298.4897 0002890 196.2418 319.2646 15.50045901357648
SOYUZ-MS 21             
1 52086U 22028A   22248.54405043  .00005773  00000+0  10888-3 0  9997
2 52086  51.6445 298.4897 0002890 196.2418 319.2646 15.50045901357641
IHI-SAT                 
1 52147U 98067TJ  22248.34114434  .00098914  00000+0  10410-2 0  9999
2 52147  51.6353 291.4408 0001117 322.2359  37.8557 15.63492474 25780
KITSUNE                 
1 52148U 98067TK  22248.52994029  .00035498  00000+0  46661-3 0  9992
2 52148  51.6422 293.1894 0001621 201.2471 302.2147 15.58142077 25719
CREW DRAGON 4           
1 52318U 22042A   22248.54405043  .00005773  00000+0  10888-3 0  9991
2 52318  51.6445 298.4897 0002890 196.2418 319.2646 15.50045901357649
TIANZHOU-4              
1 52509U 22050A   22248.33341435  .00016741  00000+0  18892-3 0  9993
2 52509  41.4719  90.7119 0006503 255.4623  92.0258 15.62094119 77296
