<?xml version="1.0" encoding="UTF-8"?>
<ndm xmlns:xsi="http://www.w3.org/2001/XMLSchema-instance" xsi:noNamespaceSchemaLocation="https://sanaregistry.org/r/ndmxml_unqualified/ndmxml-2.0.0-master-2.0.xsd">
<omm id="CCSDS_OMM_VERS" version="2.0">
<header><CREATION_DATE/><ORIGINATOR/></header><body><segment><metadata><OBJECT_NAME>PATCOOL</OBJECT_NAME><OBJECT_ID>1998-067TE</OBJECT_ID><CENTER_NAME>EARTH</CENTER_NAME><REF_FRAME>TEME</REF_FRAME><TIME_SYSTEM>UTC</TIME_SYSTEM><MEAN_ELEMENT_THEORY>SGP4</MEAN_ELEMENT_THEORY></metadata><data><meanElements><EPOCH>2022-09-05T12:02:02.483232</EPOCH><MEAN_MOTION>15.71188514</MEAN_MOTION><ECCENTRICITY>.0001933</ECCENTRICITY><INCLINATION>51.6332</INCLINATION><RA_OF_ASC_NODE>282.7270</RA_OF_ASC_NODE><ARG_OF_PERICENTER>135.5496</ARG_OF_PERICENTER><MEAN_ANOMALY>224.5657</MEAN_ANOMALY></meanElements><tleParameters><EPHEMERIS_TYPE>0</EPHEMERIS_TYPE><CLASSIFICATION_TYPE>U</CLASSIFICATION_TYPE><NORAD_CAT_ID>51442</NORAD_CAT_ID><ELEMENT_SET_NO>999</ELEMENT_SET_NO><REV_AT_EPOCH>3468</REV_AT_EPOCH><BSTAR>.72163E-3</BSTAR><MEAN_MOTION_DOT>.93596E-3</MEAN_MOTION_DOT><MEAN_MOTION_DDOT>0</MEAN_MOTION_DDOT></tleParameters></data></segment></body></omm>
<omm id="CCSDS_OMM_VERS" version="2.0">
<header><CREATION_DATE/><ORIGINATOR/></header><body><segment><metadata><OBJECT_NAME>LIGHT-1</OBJECT_NAME><OBJECT_ID>1998-067TG</OBJECT_ID><CENTER_NAME>EARTH</CENTER_NAME><REF_FRAME>TEME</REF_FRAME><TIME_SYSTEM>UTC</TIME_SYSTEM><MEAN_ELEMENT_THEORY>SGP4</MEAN_ELEMENT_THEORY></metadata><data><meanElements><EPOCH>2022-09-05T11:27:21.494304</EPOCH><MEAN_MOTION>15.64861020</MEAN_MOTION><ECCENTRICITY>.0005368</ECCENTRICITY><INCLINATION>51.6385</INCLINATION><RA_OF_ASC_NODE>287.1348</RA_OF_ASC_NODE><ARG_OF_PERICENTER>148.0414</ARG_OF_PERICENTER><MEAN_ANOMALY>212.0908</MEAN_ANOMALY></meanElements><tleParameters><EPHEMERIS_TYPE>0</EPHEMERIS_TYPE><CLASSIFICATION_TYPE>U</CLASSIFICATION_TYPE><NORAD_CAT_ID>51509</NORAD_CAT_ID><ELEMENT_SET_NO>999</ELEMENT_SET_NO><REV_AT_EPOCH>3340</REV_AT_EPOCH><BSTAR>.56193E-3</BSTAR><MEAN_MOTION_DOT>.55852E-3</MEAN_MOTION_DOT><MEAN_MOTION_DDOT>0</MEAN_MOTION_DDOT></tleParameters></data></segment></body></omm>
<omm id="CCSDS_OMM_VERS" version="2.0">
<header><CREATION_DATE/><ORIGINATOR/></header><body><segment><metadata><OBJECT_NAME>PROGRESS-MS 19</OBJECT_NAME><OBJECT_ID>2022-014A</OBJECT_ID><CENTER_NAME>EARTH</CENTER_NAME><REF_FRAME>TEME</REF_FRAME><TIME_SYSTEM>UTC</TIME_SYSTEM><MEAN_ELEMENT_THEORY>SGP4</MEAN_ELEMENT_THEORY></metadata><data><meanElements><EPOCH>2022-09-05T13:03:25.957152</EPOCH><MEAN_MOTION>15.50045901</MEAN_MOTION><ECCENTRICITY>.000289</ECCENTRICITY><INCLINATION>51.6445</INCLINATION><RA_OF_ASC_NODE>298.4897</RA_OF_ASC_NODE><ARG_OF_PERICENTER>196.2418</ARG_OF_PERICENTER><MEAN_ANOMALY>319.2646</MEAN_ANOMALY></meanElements><tleParameters><EPHEMERIS_TYPE>0</EPHEMERIS_TYPE><CLASSIFICATION_TYPE>U</CLASSIFICATION_TYPE><NORAD_CAT_ID>51660</NORAD_CAT_ID><ELEMENT_SET_NO>999</ELEMENT_SET_NO><REV_AT_EPOCH>35764</REV_AT_EPOCH><BSTAR>.10888E-3</BSTAR><MEAN_MOTION_DOT>.5773E-4</MEAN_MOTION_DOT><MEAN_MOTION_DDOT>0</MEAN_MOTION_DDOT></tleParameters></data></segment></body></omm>
<omm id="CCSDS_OMM_VERS" version="2.0">
<header><CREATION_DATE/><ORIGINATOR/></header><body><segment><metadata><OBJECT_NAME>SOYUZ-MS 21</OBJECT_NAME><OBJECT_ID>2022-028A</OBJECT_ID><CENTER_NAME>EARTH</CENTER_NAME><REF_FRAME>TEME</REF_FRAME><TIME_SYSTEM>UTC</TIME_SYSTEM><MEAN_ELEMENT_THEORY>SGP4</MEAN_ELEMENT_THEORY></metadata><data><meanElements><EPOCH>2022-09-05T13:03:25.957152</EPOCH><MEAN_MOTION>15.50045901</MEAN_MOTION><ECCENTRICITY>.000289</ECCENTRICITY><INCLINATION>51.6445</INCLINATION><RA_OF_ASC_NODE>298.4897</RA_OF_ASC_NODE><ARG_OF_PERICENTER>196.2418</ARG_OF_PERICENTER><MEAN_ANOMALY>319.2646</MEAN_ANOMALY></meanElements><tleParameters><EPHEMERIS_TYPE>0</EPHEMERIS_TYPE><CLASSIFICATION_TYPE>U</CLASSIFICATION_TYPE><NORAD_CAT_ID>52086</NORAD_CAT_ID><ELEMENT_SET_NO>999</ELEMENT_SET_NO><REV_AT_EPOCH>35764</REV_AT_EPOCH><BSTAR>.10888E-3</BSTAR><MEAN_MOTION_DOT>.5773E-4</MEAN_MOTION_DOT><MEAN_MOTION_DDOT>0</MEAN_MOTION_DDOT></tleParameters></data></segment></body></omm>
<omm id="CCSDS_OMM_VERS" version="2.0">
<header><CREATION_DATE/><ORIGINATOR/></header><body><segment><metadata><OBJECT_NAME>IHI-SAT</OBJECT_NAME><OBJECT_ID>1998-067TJ</OBJECT_ID><CENTER_NAME>EARTH</CENTER_NAME><REF_FRAME>TEME</REF_FRAME><TIME_SYSTEM>UTC</TIME_SYSTEM><MEAN_ELEMENT_THEORY>SGP4</MEAN_ELEMENT_THEORY></metadata><data><meanElements><EPOCH>2022-09-05T08:11:14.870976</EPOCH><MEAN_MOTION>15.63492474</MEAN_MOTION><ECCENTRICITY>.0001117</ECCENTRICITY><INCLINATION>51.6353</INCLINATION><RA_OF_ASC_NODE>291.4408</RA_OF_ASC_NODE><ARG_OF_PERICENTER>322.2359</ARG_OF_PERICENTER><MEAN_ANOMALY>37.8557</MEAN_ANOMALY></meanElements><tleParameters><EPHEMERIS_TYPE>0</EPHEMERIS_TYPE><CLASSIFICATION_TYPE>U</CLASSIFICATION_TYPE><NORAD_CAT_ID>52147</NORAD_CAT_ID><ELEMENT_SET_NO>999</ELEMENT_SET_NO><REV_AT_EPOCH>2578</REV_AT_EPOCH><BSTAR>.1041E-2</BSTAR><MEAN_MOTION_DOT>.98914E-3</MEAN_MOTION_DOT><MEAN_MOTION_DDOT>0</MEAN_MOTION_DDOT></tleParameters></data></segment></body></omm>
<omm id="CCSDS_OMM_VERS" version="2.0">
<header><CREATION_DATE/><ORIGINATOR/></header><body><segment><metadata><OBJECT_NAME>KITSUNE</OBJECT_NAME><OBJECT_ID>1998-067TK</OBJECT_ID><CENTER_NAME>EARTH</CENTER_NAME><REF_FRAME>TEME</REF_FRAME><TIME_SYSTEM>UTC</TIME_SYSTEM><MEAN_ELEMENT_THEORY>SGP4</MEAN_ELEMENT_THEORY></metadata><data><meanElements><EPOCH>2022-09-05T12:43:06.841056</EPOCH><MEAN_MOTION>15.58142077</MEAN_MOTION><ECCENTRICITY>.0001621</ECCENTRICITY><INCLINATION>51.6422</INCLINATION><RA_OF_ASC_NODE>293.1894</RA_OF_ASC_NODE><ARG_OF_PERICENTER>201.2471</ARG_OF_PERICENTER><MEAN_ANOMALY>302.2147</MEAN_ANOMALY></meanElements><tleParameters><EPHEMERIS_TYPE>0</EPHEMERIS_TYPE><CLASSIFICATION_TYPE>U</CLASSIFICATION_TYPE><NORAD_CAT_ID>52148</NORAD_CAT_ID><ELEMENT_SET_NO>999</ELEMENT_SET_NO><REV_AT_EPOCH>2571</REV_AT_EPOCH><BSTAR>.46661E-3</BSTAR><MEAN_MOTION_DOT>.35498E-3</MEAN_MOTION_DOT><MEAN_MOTION_DDOT>0</MEAN_MOTION_DDOT></tleParameters></data></segment></body></omm>
<omm id="CCSDS_OMM_VERS" version="2.0">
<header><CREATION_DATE/><ORIGINATOR/></header><body><segment><metadata><OBJECT_NAME>CREW DRAGON 4</OBJECT_NAME><OBJECT_ID>2022-042A</OBJECT_ID><CENTER_NAME>EARTH</CENTER_NAME><REF_FRAME>TEME</REF_FRAME><TIME_SYSTEM>UTC</TIME_SYSTEM><MEAN_ELEMENT_THEORY>SGP4</MEAN_ELEMENT_THEORY></metadata><data><meanElements><EPOCH>2022-09-05T13:03:25.957152</EPOCH><MEAN_MOTION>15.50045901</MEAN_MOTION><ECCENTRICITY>.000289</ECCENTRICITY><INCLINATION>51.6445</INCLINATION><RA_OF_ASC_NODE>298.4897</RA_OF_ASC_NODE><ARG_OF_PERICENTER>196.2418</ARG_OF_PERICENTER><MEAN_ANOMALY>319.2646</MEAN_ANOMALY></meanElements><tleParameters><EPHEMERIS_TYPE>0</EPHEMERIS_TYPE><CLASSIFICATION_TYPE>U</CLASSIFICATION_TYPE><NORAD_CAT_ID>52318</NORAD_CAT_ID><ELEMENT_SET_NO>999</ELEMENT_SET_NO><REV_AT_EPOCH>35764</REV_AT_EPOCH><BSTAR>.10888E-3</BSTAR><MEAN_MOTION_DOT>.5773E-4</MEAN_MOTION_DOT><MEAN_MOTION_DDOT>0</MEAN_MOTION_DDOT></tleParameters></data></segment></body></omm>
<omm id="CCSDS_OMM_VERS" version="2.0">
<header><CREATION_DATE/><ORIGINATOR/></header><body><segment><metadata><OBJECT_NAME>TIANZHOU-4</OBJECT_NAME><OBJECT_ID>2022-050A</OBJECT_ID><CENTER_NAME>EARTH</CENTER_NAME><REF_FRAME>TEME</REF_FRAME><TIME_SYSTEM>UTC</TIME_SYSTEM><MEAN_ELEMENT_THEORY>SGP4</MEAN_ELEMENT_THEORY></metadata><data><meanElements><EPOCH>2022-09-05T08:00:06.999840</EPOCH><MEAN_MOTION>15.62094119</MEAN_MOTION><ECCENTRICITY>.0006503</ECCENTRICITY><INCLINATION>41.4719</INCLINATION><RA_OF_ASC_NODE>90.7119</RA_OF_ASC_NODE><ARG_OF_PERICENTER>255.4623</ARG_OF_PERICENTER><MEAN_ANOMALY>92.0258</MEAN_ANOMALY></meanElements><tleParameters><EPHEMERIS_TYPE>0</EPHEMERIS_TYPE><CLASSIFICATION_TYPE>U</CLASSIFICATION_TYPE><NORAD_CAT_ID>52509</NORAD_CAT_ID><ELEMENT_SET_NO>999</ELEMENT_SET_NO><REV_AT_EPOCH>7729</REV_AT_EPOCH><BSTAR>.18892E-3</BSTAR><MEAN_MOTION_DOT>.16741E-3</MEAN_MOTION_DOT><MEAN_MOTION_DDOT>0</MEAN_MOTION_DDOT></tleParameters></data></segment></body></omm>

</ndm>
